{"type": "FeatureCollection", "features": [{"type": "Feature", "properties": {"norad_id": 50032, "name": "COSMOS 1408 DEB", "group": "cosmos-1408-debris", "lat": -72.47284770320725, "lon": -96.0910013439839, "alt_km": 429.0213211505079, "timestamp": "2025-12-11T18:59:46.343716+00:00", "meta": {"OBJECT_NAME": "COSMOS 1408 DEB", "OBJECT_ID": "1982-092RU", "EPOCH": "2025-12-11T05:28:13.739520", "MEAN_MOTION": 15.45669243, "ECCENTRICITY": 0.00151136, "INCLINATION": 82.564, "RA_OF_ASC_NODE": 60.0581, "ARG_OF_PERICENTER": 214.3913, "MEAN_ANOMALY": 145.6359, "EPHEMERIS_TYPE": 0, "CLASSIFICATION_TYPE": "U", "NORAD_CAT_ID": 50032, "ELEMENT_SET_NO": 999, "REV_AT_EPOCH": 22580, "BSTAR": 0.00015919345, "MEAN_MOTION_DOT": 7.748e-05, "MEAN_MOTION_DDOT": 0}, "tle": {"line1": "1 50032U 82092RU  25345.22793680  .00007748  00000+0  15919-3 0  9990", "line2": "2 50032  82.5640  60.0581 0015113 214.3913 145.6359 15.45669243225806"}}, "geometry": {"type": "Point", "coordinates": [-96.0910013439839, -72.47284770320725]}}, {"type": "Feature", "properties": {"norad_id": 50058, "name": "COSMOS 1408 DEB", "group": "cosmos-1408-debris", "lat": 32.50027874290859, "lon": 75.07619656877696, "alt_km": 370.08950143725724, "timestamp": "2025-12-11T18:59:46.343736+00:00", "meta": {"OBJECT_NAME": "COSMOS 1408 DEB", "OBJECT_ID": "1982-092SW", "EPOCH": "2025-12-11T06:34:19.152192", "MEAN_MOTION": 15.63964775, "ECCENTRICITY": 0.00160129, "INCLINATION": 82.6138, "RA_OF_ASC_NODE": 70.8772, "ARG_OF_PERICENTER": 102.2436, "MEAN_ANOMALY": 258.0617, "EPHEMERIS_TYPE": 0, "CLASSIFICATION_TYPE": "U", "NORAD_CAT_ID": 50058, "ELEMENT_SET_NO": 999, "REV_AT_EPOCH": 22781, "BSTAR": 0.00053909325, "MEAN_MOTION_DOT": 0.00051314, "MEAN_MOTION_DDOT": 0}, "tle": {"line1": "1 50058U 82092SW  25345.27383278  .00051314  00000+0  53909-3 0  9990", "line2": "2 50058  82.6138  70.8772 0016012 102.2436 258.0617 15.63964775227819"}}, "geometry": {"type": "Point", "coordinates": [75.07619656877696, 32.50027874290859]}}, {"type": "Feature", "properties": {"norad_id": 50404, "name": "COSMOS 1408 DEB", "group": "cosmos-1408-debris", "lat": -43.00454016560574, "lon": -151.3378928685683, "alt_km": 579.5949759942387, "timestamp": "2025-12-11T18:59:46.343750+00:00", "meta": {"OBJECT_NAME": "COSMOS 1408 DEB", "OBJECT_ID": "1982-092ADS", "EPOCH": "2025-12-11T01:44:16.772640", "MEAN_MOTION": 15.13391943, "ECCENTRICITY": 0.01726658, "INCLINATION": 82.2029, "RA_OF_ASC_NODE": 216.7405, "ARG_OF_PERICENTER": 204.633, "MEAN_ANOMALY": 154.6586, "EPHEMERIS_TYPE": 0, "CLASSIFICATION_TYPE": "U", "NORAD_CAT_ID": 50404, "ELEMENT_SET_NO": 999, "REV_AT_EPOCH": 21168, "BSTAR": 0.003930623, "MEAN_MOTION_DOT": 0.00102745, "MEAN_MOTION_DDOT": 0}, "tle": {"line1": "1 50404U 82092ADS 25345.07241635  .00102745  00000+0  39306-2 0  9992", "line2": "2 50404  82.2029 216.7405 0172665 204.6330 154.6586 15.13391943211680"}}, "geometry": {"type": "Point", "coordinates": [-151.3378928685683, -43.00454016560574]}}, {"type": "Feature", "properties": {"norad_id": 50621, "name": "COSMOS 1408 DEB", "group": "cosmos-1408-debris", "lat": 72.73575690066363, "lon": 99.99799810191918, "alt_km": 387.6444465880295, "timestamp": "2025-12-11T18:59:46.343762+00:00", "meta": {"OBJECT_NAME": "COSMOS 1408 DEB", "OBJECT_ID": "1982-092ALR", "EPOCH": "2025-12-11T06:20:02.529024", "MEAN_MOTION": 15.56543067, "ECCENTRICITY": 0.00288426, "INCLINATION": 82.5698, "RA_OF_ASC_NODE": 75.7168, "ARG_OF_PERICENTER": 157.9055, "MEAN_ANOMALY": 202.3451, "EPHEMERIS_TYPE": 0, "CLASSIFICATION_TYPE": "U", "NORAD_CAT_ID": 50621, "ELEMENT_SET_NO": 999, "REV_AT_EPOCH": 22227, "BSTAR": 0.0006575939, "MEAN_MOTION_DOT": 0.00047764, "MEAN_MOTION_DDOT": 0}, "tle": {"line1": "1 50621U 82092ALR 25345.26391816  .00047764  00000+0  65759-3 0  9992", "line2": "2 50621  82.5698  75.7168 0028842 157.9055 202.3451 15.56543067222278"}}, "geometry": {"type": "Point", "coordinates": [99.99799810191918, 72.73575690066363]}}]}